HELIOS 1B               
1 25977U 99064A   21051.46473633  .00000044  00000-0  12632-4 0  9999
2 25977  98.3046 221.4351 0000194 180.4396 179.6816 14.82532688411860
TERRA                   
1 25994U 99068A   21051.57351624 -.00000048  00000-0 -68663-6 0  9992
2 25994  98.1875 128.0821 0001309  92.9764  43.6362 14.57119564126322
SL-16 R/B               
1 26070U 00006B   21051.28623477  .00000203  00000-0  12808-3 0  9996
2 26070  71.0041  12.4581 0014496 110.2512 250.0171 14.15467900 87702
MTI                     
1 26102U 00014A   21050.98140634  .00007610  00000-0  99858-4 0  9996
2 26102  97.4761 311.4665 0008042  43.4038 316.7899 15.58818228163033
TITAN 4B R/B            
1 26474U 00047B   21051.56240669  .00000123  00000-0  21487-4 0  9993
2 26474  67.9934 112.6991 0060989 283.4785  75.9565 14.96085393116352
ENVISAT                 
1 27386U 02009A   21051.55482611  .00000027  00000-0  22337-4 0  9998
2 27386  98.1443  51.6109 0001220  92.4721 342.9762 14.38013137994207
IDEFIX & ARIANE 42P R/B 
1 27422U 02021B   21051.34188162  .00000007  00000-0  19058-4 0  9998
2 27422  98.3876   8.5930 0011417 214.8064 145.2372 14.29308529980570
AQUA                    
1 27424U 02022A   21051.63232639  .00000091  00000-0  30355-4 0  9998
2 27424  98.2182 354.6630 0000790  12.8931 326.6549 14.57110887    16
CZ-4B R/B               
1 27432U 02024C   21051.49649369 -.00000027  00000-0  97926-5 0  9993
2 27432  99.0905  63.9172 0050188 195.6527 318.3673 14.14104205968700
MIDORI II (ADEOS-II)    
1 27597U 02056A   21051.31991212  .00000027  00000-0  28740-4 0  9994
2 27597  98.5518 359.0596 0001355  40.6774 319.4508 14.27484754947171
H-2A R/B                
1 27601U 02056E   21051.52471286 -.00000073  00000-0 -11355-4 0  9994
2 27601  98.2020  80.1821 0071004 258.2923 244.9204 14.31991294950194
CZ-4B R/B               
1 28059U 03049C   21051.50352886  .00000020  00000-0  16527-4 0  9993
2 28059  98.4918 336.8533 0051233 100.0185 260.6797 14.52635430918845
CZ-2C R/B               
1 28222U 04012C   21051.53346431  .00000688  00000-0  44753-4 0  9990
2 28222  97.7128  21.2868 0045245 261.1571 165.7263 15.10709610923444
SL-16 R/B               
1 28353U 04021B   21051.54224843 -.00000041  00000-0  36699-5 0  9993
2 28353  71.0023 139.0121 0007060 304.0657  55.9795 14.14243344862210
CZ-4B R/B               
1 28415U 04035C   21051.37911769  .00000118  00000-0  11967-4 0  9992
2 28415  97.5826  95.7824 0050296 225.6141 134.0963 15.07028590900975
CZ-2C R/B               
1 28480U 04046B   21051.51929219 -.00000032  00000-0  29187-5 0  9991
2 28480  98.0578  72.9148 0141306 209.9017 300.2745 14.25740638845766
ARIANE 5 R/B            
1 28499U 04049H   21051.54576936  .00000081  00000-0  17383-4 0  9998
2 28499  98.0610 160.2630 0091899 190.7003 179.8637 14.80090141872794
CZ-2D R/B               
1 28738U 05024B   21051.53119942  .00000453  00000-0  29723-4 0  9991
2 28738  97.3687  71.6659 0013121  51.7297 308.5113 15.12273051858899
SUZAKU (ASTRO-EII)      
1 28773U 05025A   21051.61025075  .00001250  00000-0  55498-4 0  9997
2 28773  31.3805 202.5050 0004460 188.6917 171.3654 15.18098288861694
ALOS (DAICHI)           
1 28931U 06002A   21051.31646423  .00000130  00000-0  34048-4 0  9996
2 28931  97.8735  31.2742 0002292  52.3725 307.7689 14.62798784803931
H-2A R/B                
1 28932U 06002B   21051.48734684  .00000198  00000-0  24529-4 0  9999
2 28932  98.3323  61.6886 0087410 229.6714 291.4385 14.92447978818138
AKARI (ASTRO-F)         
1 28939U 06005A   21051.35528862  .00002575  00000-0  67160-4 0  9993
2 28939  98.2501  60.5569 0089638 175.1203 185.0934 15.35986436818920
RESURS-DK 1             
1 29228U 06021A   21051.59069744  .00000072  00000-0  12662-4 0  9995
2 29228  69.9343 276.2679 0001559  66.1589 293.9735 15.02643765809995
GENESIS 1               
1 29252U 06029A   21051.46706386  .00000387  00000-0  28635-4 0  9992
2 29252  64.5214 210.2174 0029603 336.1973  23.7779 15.18476991805754
CZ-4B R/B               
1 29507U 06046C   21051.41176114  .00000602  00000-0  51270-4 0  9990
2 29507  97.7191  77.9801 0049362  49.6894 310.8627 15.00656593782559
CZ-2C R/B               
1 31114U 07010B   21051.52043738  .00000031  00000-0  33091-4 0  9993
2 31114  98.2379 253.4065 0058552 263.8112  95.6393 14.19347644718197
COSMO-SKYMED 1          
1 31598U 07023A   21051.51146088 -.00000182  00000-0 -16250-4 0  9991
2 31598  97.8860 237.0650 0001433  88.0648 272.0728 14.82151266741572
GENESIS 2               
1 31789U 07028A   21051.56259779  .00000461  00000-0  32902-4 0  9995
2 31789  64.5052 252.0270 0025262 213.9576 145.9931 15.17617741752826
COSMOS 2428             
1 31792U 07029A   21051.53730691 -.00000040  00000-0  47098-5 0  9991
2 31792  70.8913 111.7100 0004437  44.5337 315.6139 14.12236918703800
SL-16 R/B               
1 31793U 07029B   21051.52187699  .00000136  00000-0  95792-4 0  9993
2 31793  70.9741  85.2586 0002617 264.5023 245.4791 14.14437534704734
KORONAS-FOTON           
1 33504U 09003A   21051.52331275  .00000794  00000-0  39596-4 0  9990
2 33504  82.4445 335.9507 0019999 136.9687 223.3113 15.15874538664955
H-2A R/B                
1 38341U 12025E   21051.42529260  .00000209  00000-0  31898-4 0  9992
2 38341  98.5212 228.9231 0055997 154.3774 206.0233 14.84170027474141
CUSAT 2 & FALCON 9 R/B  
1 39271U 13055G   21051.49049372  .00005013  00000-0  11690-3 0  9992
2 39271  80.9673 359.6201 0576933 142.6331 221.6491 14.51018079386666
SL-4 R/B                
1 39679U 14021B   21051.53479948  .00000245  00000-0  30071-4 0  9996
2 39679  51.6162  35.8781 0171285  85.6594 276.3926 15.06757909376426
ALOS-2                  
1 39766U 14029A   21051.52082171 -.00000030  00000-0  28771-5 0  9996
2 39766  97.9209 150.5688 0001574  95.2349 264.9018 14.79473829364378
CZ-2C R/B               
1 40306U 14071B   21051.55514903  .00004717  00000-0  94833-4 0  9997
2 40306  97.3565   6.9980 0014098 349.1625  10.9319 15.47047103352177
SL-27 R/B               
1 40354U 14084B   21051.55234270  .00000938  00000-0  23679-4 0  9991
2 40354  74.7357 234.6299 0038009 297.3187  62.4157 15.40786705346330
YAOGAN 29               
1 41038U 15069A   21051.55186467  .00000024  00000-0  10056-4 0  9990
2 41038  98.0312  45.3942 0001814 115.9171 244.2225 14.80486704282989
ASTRO-H (HITOMI)        
1 41337U 16012A   21051.62103229  .00000253  00000-0  13550-4 0  9990
2 41337  31.0041 236.1645 0012331   2.9907 357.0800 14.98785704274765
HXMT (HUIYAN)           
1 42758U 17034A   21051.57203991  .00000364  00000-0  36187-4 0  9998
2 42758  43.0170 114.6275 0008330 153.0533 351.3884 15.09067348203351
CZ-2C R/B               
1 43521U 18054D   21051.49648773  .00000353  00000-0  21206-4 0  9996
2 43521  35.1534  90.9867 0081882 146.4067 214.1873 15.11317601146690
AEOLUS                  
1 43600U 18066A   21051.44829838  .00039246  00000-0  15383-3 0  9996
2 43600  96.7204  60.0790 0006435  87.0444 273.1566 15.86853010144691
SAOCOM 1A               
1 43641U 18076A   21051.51984424 -.00000128  00000-0 -95751-5 0  9991
2 43641  97.8872 240.1014 0001503  79.2515 280.8829 14.82157053128342
CREW DRAGON DEMO-1 DEB  
1 44064U 19011B   21051.47727946  .00042532  00000-0  26017-3 0  9990
2 44064  51.6256 127.2441 0003237 307.5810  52.4896 15.76893723111867
CZ-2F R/B               
1 46390U 20063B   21051.51454267  .00043237  00000-0  15679-3 0  9996
2 46390  50.2002 239.5861 0010016 309.4903  50.5195 15.87980281 26791
2020-063G               
1 46395U 20063G   21051.50045290  .00017724  00000-0  88158-4 0  9997
2 46395  50.2033 243.4796 0009539 305.0242  54.9845 15.81944045 26733
